     2.100          NAVIGATION                              RINEX VERSION / TYPE
fic2rin                                 11/20/2009 01:54:30 PGM / RUN BY / DATE
                                                            END OF HEADER
 1 09 11 19  1 59 44.0 -.653830356896D-04 -.216004991671D-11  .000000000000D+00
     .420000000000D+02 -.396562500000D+02  .538165273887D-08 -.256139841879D+01
    -.193715095520D-05  .380140391644D-02  .107586383820D-04  .515368304634D+04
     .352784000000D+06 -.633299350739D-07  .651907364113D+00 -.242143869400D-07
     .962737707010D+00  .172656250000D+03  .972844901226D+00 -.760245953010D-08
     .465733685392D-09  .100000000000D+01  .155800000000D+04  .000000000000D+00
     .240000000000D+01  .630000000000D+02 -.190921127796D-07  .420000000000D+02
     .345606000000D+06  .400000000000D+01
28 09 11 19  1 59 44.0 -.253226608038D-04  .227373675443D-12  .000000000000D+00
     .300000000000D+02 -.456250000000D+02  .393694970404D-08  .285172817527D+01
    -.238604843616D-05  .153401873540D-01  .102594494820D-04  .515365984154D+04
     .352784000000D+06  .119209289551D-06  .690296528890D+00 -.139698386192D-06
     .968362782094D+00  .182718750000D+03 -.200990378109D+01 -.730816155712D-08
     .447518640948D-09  .100000000000D+01  .155800000000D+04  .000000000000D+00
     .240000000000D+01  .000000000000D+00 -.107102096081D-07  .300000000000D+02
     .345606000000D+06  .400000000000D+01
 2 09 11 19  2  0  0.0  .193313695490D-03  .443378667114D-11  .000000000000D+00
     .102000000000D+03 -.750000000000D+01  .503199531709D-08  .118310302746D+01
    -.394880771637D-06  .916324963327D-02  .857748091221D-05  .515373553085D+04
     .352800000000D+06  .856816768646D-07  .273818038288D+01  .158324837685D-06
     .940770473541D+00  .204000000000D+03  .291637196216D+01 -.808962267954D-08
    -.553237330270D-09  .100000000000D+01  .155800000000D+04  .000000000000D+00
     .240000000000D+01  .000000000000D+00 -.172294676304D-07  .102000000000D+03
     .345606000000D+06  .400000000000D+01
 3 09 11 19  2  0  0.0  .476479064673D-03  .522959453519D-11  .000000000000D+00
     .590000000000D+02  .909375000000D+01  .564666377764D-08  .939888231535D+00
     .527128577232D-06  .126831812086D-01  .579282641411D-05  .515366093636D+04
     .352800000000D+06 -.145286321640D-06  .158806030351D+01  .484287738800D-07
     .926170451631D+00  .252093750000D+03  .967161765850D+00 -.862857370044D-08
     .184650548579D-09  .100000000000D+01  .155800000000D+04  .000000000000D+00
     .485000000000D+01  .000000000000D+00 -.419095158577D-08  .590000000000D+02
     .345606000000D+06  .400000000000D+01
 4 09 11 19  2  0  0.0 -.365881714970D-03 -.181898940355D-10  .000000000000D+00
     .590000000000D+02 -.109062500000D+02  .499556522820D-08 -.222876335945D+01
    -.875443220139D-06  .905101664830D-02  .877305865288D-05  .515357478333D+04
     .352800000000D+06  .540167093277D-07  .275631369427D+01 -.132247805595D-06
     .939963288010D+00  .198156250000D+03  .558404466462D+00 -.802783439153D-08
    -.386801826134D-09  .100000000000D+01  .155800000000D+04  .000000000000D+00
     .240000000000D+01  .000000000000D+00 -.605359673500D-08  .590000000000D+02
     .345606000000D+06  .400000000000D+01
 5 09 11 19  2  0  0.0 -.421577133238D-04  .659383658785D-11  .000000000000D+00
     .730000000000D+02  .115156250000D+03  .434196657462D-08  .259768051340D+01
     .607781112194D-05  .166966172401D-02  .856630504131D-05  .515360720634D+04
     .352800000000D+06 -.447034835815D-07 -.248717496155D+01 -.745058059692D-08
     .961096074469D+00  .215187500000D+03  .234684365534D+00 -.785854162552D-08
     .778603860547D-10  .100000000000D+01  .155800000000D+04  .000000000000D+00
     .340000000000D+01  .000000000000D+00 -.884756445885D-08  .730000000000D+02
     .345606000000D+06  .400000000000D+01
 6 09 11 19  2  0  0.0  .261750072241D-03  .170530256582D-11  .000000000000D+00
     .200000000000D+02  .662500000000D+01  .540093925651D-08 -.304109441377D+01
     .316649675369D-06  .577289925423D-02  .515952706337D-05  .515365465736D+04
     .352800000000D+06  .800937414169D-07  .165714315878D+01  .558793544769D-07
     .933583620762D+00  .263031250000D+03 -.120730942089D+01 -.825070081766D-08
     .263225250103D-09  .100000000000D+01  .155800000000D+04  .000000000000D+00
     .240000000000D+01  .000000000000D+00 -.512227416039D-08  .200000000000D+02
     .345606000000D+06  .400000000000D+01
 7 09 11 19  2  0  0.0  .747805461287D-05 -.682121026330D-12  .000000000000D+00
     .190000000000D+02 -.122656250000D+03  .421231831711D-08 -.542983160880D+00
    -.650621950626D-05  .326373439748D-02  .532343983650D-05  .515364546585D+04
     .352800000000D+06  .111758708954D-06 -.387271371819D+00 -.689178705215D-07
     .969817291320D+00  .283468750000D+03  .303425585691D+01 -.798604693662D-08
    -.305369862738D-09  .100000000000D+01  .155800000000D+04  .000000000000D+00
     .240000000000D+01  .000000000000D+00 -.107102096081D-07  .190000000000D+02
     .345606000000D+06  .400000000000D+01
 8 09 11 19  2  0  0.0 -.122003257275D-06  .682121026330D-12  .000000000000D+00
     .220000000000D+02 -.123437500000D+03  .368051045089D-08 -.115512403162D+01
    -.658072531223D-05  .110133721028D-01  .597536563873D-05  .515361251640D+04
     .352800000000D+06 -.149011611938D-07 -.323311490353D+00 -.217929482460D-06
     .991122583617D+00  .279031250000D+03  .306161222165D+01 -.769139180591D-08
    -.129648257513D-09  .100000000000D+01  .155800000000D+04  .000000000000D+00
     .240000000000D+01  .630000000000D+02 -.372529029846D-08  .220000000000D+02
     .345606000000D+06  .400000000000D+01
 9 09 11 19  2  0  0.0  .892826355994D-04  .204636307899D-11  .000000000000D+00
     .103000000000D+03 -.117718750000D+03  .415660171057D-08 -.136493546313D+01
    -.585615634918D-05  .206149508012D-01  .602751970291D-05  .515362379837D+04
     .352800000000D+06 -.117346644402D-06 -.420008693037D+00  .527128577232D-06
     .978644756985D+00  .270187500000D+03  .152021278600D+01 -.801140513575D-08
    -.332156692802D-09  .100000000000D+01  .155800000000D+04  .000000000000D+00
     .485000000000D+01  .000000000000D+00 -.558793544769D-08  .103000000000D+03
     .345606000000D+06  .400000000000D+01
10 09 11 19  2  0  0.0 -.286372378469D-04 -.909494701773D-12  .000000000000D+00
     .880000000000D+02  .119406250000D+03  .444197074020D-08  .238029433930D+01
     .620819628239D-05  .876378489193D-02  .867247581482D-05  .515341126633D+04
     .352800000000D+06 -.150874257088D-06 -.246035518493D+01 -.143423676491D-06
     .956145621132D+00  .210250000000D+03  .620290361652D+00 -.785497004817D-08
     .992898501065D-10  .100000000000D+01  .155800000000D+04  .000000000000D+00
     .240000000000D+01  .000000000000D+00 -.279396772385D-08  .880000000000D+02
     .345606000000D+06  .400000000000D+01
11 09 11 19  2  0  0.0 -.299415551126D-04 -.204636307899D-11  .000000000000D+00
     .650000000000D+02 -.182500000000D+02  .645491173013D-08 -.648784706956D+00
    -.817701220512D-06  .102487906115D-01  .659748911858D-05  .515369984055D+04
     .352800000000D+06  .987201929092D-07  .252929306355D+01  .149011611938D-06
     .888913993602D+00  .212937500000D+03  .759695181359D+00 -.895751597364D-08
    -.428232123301D-09  .100000000000D+01  .155800000000D+04  .000000000000D+00
     .240000000000D+01  .000000000000D+00 -.116415321827D-07  .650000000000D+02
     .345606000000D+06  .400000000000D+01
12 09 11 19  2  0  0.0 -.188153702766D-03  .522959453519D-11  .000000000000D+00
     .360000000000D+02 -.339062500000D+02  .410481383912D-08 -.412214000722D+00
    -.174343585968D-05  .317703525070D-02  .105798244476D-04  .515381265259D+04
     .352800000000D+06 -.931322574615D-08  .665142610728D+00 -.147148966789D-06
     .968824800882D+00  .183062500000D+03 -.563796898072D+00 -.766067624077D-08
     .393587823084D-09  .100000000000D+01  .155800000000D+04  .000000000000D+00
     .240000000000D+01  .000000000000D+00 -.121071934700D-07  .360000000000D+02
     .345606000000D+06  .400000000000D+01
13 09 11 19  2  0  0.0  .306300353259D-03  .227373675443D-12  .000000000000D+00
     .780000000000D+02  .343125000000D+02  .399909514979D-08  .184479893297D+01
     .159814953804D-05  .394125259481D-02  .869855284691D-06  .515362436485D+04
     .352800000000D+06 -.316649675369D-07 -.137299907929D+01 -.558793544769D-07
     .993802893845D+00  .376843750000D+03  .165456149019D+01 -.803033449566D-08
     .964325882329D-11  .100000000000D+01  .155800000000D+04  .000000000000D+00
     .240000000000D+01  .000000000000D+00 -.111758708954D-07  .780000000000D+02
     .345606000000D+06  .400000000000D+01
14 09 11 19  2  0  0.0 -.227228738368D-04  .477484718431D-11  .000000000000D+00
     .154000000000D+03  .286875000000D+02  .417838833236D-08  .176030917309D+01
     .142306089401D-05  .508210458793D-02  .599771738052D-06  .515367333984D+04
     .352800000000D+06 -.139698386192D-06 -.139361821619D+01 -.109896063805D-06
     .987190597754D+00  .383593750000D+03 -.211537020043D+01 -.819105547605D-08
     .507163982558D-10  .100000000000D+01  .155800000000D+04  .000000000000D+00
     .240000000000D+01  .000000000000D+00 -.884756445885D-08  .154000000000D+03
     .345606000000D+06  .400000000000D+01
15 09 11 19  2  0  0.0 -.319912098348D-03  .568434188608D-12  .000000000000D+00
     .250000000000D+02  .411875000000D+02  .494092009487D-08  .197151738708D+01
     .229850411415D-05  .201929814648D-02  .456348061562D-06  .515369074059D+04
     .352800000000D+06  .122934579849D-06 -.145167712354D+01  .204890966415D-07
     .955017923416D+00  .364875000000D+03 -.470492436481D+00 -.854107005557D-08
     .160720980388D-10  .100000000000D+01  .155800000000D+04  .000000000000D+00
     .240000000000D+01  .000000000000D+00 -.977888703346D-08  .250000000000D+02
     .345606000000D+06  .400000000000D+01
